{
    "links": {
        "self": "http://www.neowsapp.com/rest/v1/neo/3827317?api_key=iIulBulltgU6a56xZRHN4H3l9WmuAYTsLGpBGhQ2"
    },
    "id": "3827317",
    "neo_reference_id": "3827317",
    "name": "(2018 RA2)",
    "designation": "2018 RA2",
    "nasa_jpl_url": "http://ssd.jpl.nasa.gov/sbdb.cgi?sstr=3827317",
    "absolute_magnitude_h": 25.4,
    "estimated_diameter": {
        "kilometers": {
            "estimated_diameter_min": 0.022108281,
            "estimated_diameter_max": 0.0494356193
        },
        "meters": {
            "estimated_diameter_min": 22.1082810359,
            "estimated_diameter_max": 49.435619262
        },
        "miles": {
            "estimated_diameter_min": 0.0137374447,
            "estimated_diameter_max": 0.0307178602
        },
        "feet": {
            "estimated_diameter_min": 72.5337327539,
            "estimated_diameter_max": 162.1903570994
        }
    },
    "is_potentially_hazardous_asteroid": false,
    "close_approach_data": [
        {
            "close_approach_date": "2016-09-10",
            "close_approach_date_full": "2016-Sep-10 04:00",
            "epoch_date_close_approach": 1473480000000,
            "relative_velocity": {
                "kilometers_per_second": "8.6936140598",
                "kilometers_per_hour": "31297.0106151445",
                "miles_per_hour": "19446.7452902824"
            },
            "miss_distance": {
                "astronomical": "0.0873369493",
                "lunar": "33.9740732777",
                "kilometers": "13065421.587577991",
                "miles": "8118476.5157626358"
            },
            "orbiting_body": "Mars"
        },
        {
            "close_approach_date": "2018-09-16",
            "close_approach_date_full": "2018-Sep-16 19:04",
            "epoch_date_close_approach": 1537124640000,
            "relative_velocity": {
                "kilometers_per_second": "9.3386029139",
                "kilometers_per_hour": "33618.9704901477",
                "miles_per_hour": "20889.5208581698"
            },
            "miss_distance": {
                "astronomical": "0.0205548406",
                "lunar": "7.9958329934",
                "kilometers": "3074960.371949522",
                "miles": "1910691.7751745236"
            },
            "orbiting_body": "Earth"
        },
        {
            "close_approach_date": "2019-01-24",
            "close_approach_date_full": "2019-Jan-24 01:23",
            "epoch_date_close_approach": 1548292980000,
            "relative_velocity": {
                "kilometers_per_second": "4.8086424766",
                "kilometers_per_hour": "17311.1129159245",
                "miles_per_hour": "10756.4523560087"
            },
            "miss_distance": {
                "astronomical": "0.413709639",
                "lunar": "160.933049571",
                "kilometers": "61890080.79286893",
                "miles": "38456712.943214034"
            },
            "orbiting_body": "Earth"
        }
    ],
    "orbital_data": {
        "orbit_id": "9",
        "orbit_determination_date": "2020-09-11 07:40:04",
        "first_observation_date": "2018-09-07",
        "last_observation_date": "2018-09-14",
        "data_arc_in_days": 7,
        "observations_used": 59,
        "orbit_uncertainty": "7",
        "minimum_orbit_intersection": ".0211645",
        "jupiter_tisserand_invariant": "4.446",
        "epoch_osculation": "2459000.5",
        "eccentricity": ".3989261140992327",
        "semi_major_axis": "1.500459707953402",
        "inclination": "6.647662912522986",
        "ascending_node_longitude": "344.5242114376164",
        "orbital_period": "671.328266206644",
        "perihelion_distance": ".901887147297082",
        "perihelion_argument": "61.58654728803088",
        "aphelion_distance": "2.099032268609722",
        "perihelion_time": "2459091.314561579679",
        "mean_anomaly": "311.3006619646474",
        "mean_motion": ".5362503236072397",
        "equinox": "J2000",
        "orbit_class": {
            "orbit_class_type": "APO",
            "orbit_class_description": "Near-Earth asteroid orbits which cross the Earth’s orbit similar to that of 1862 Apollo",
            "orbit_class_range": "a (semi-major axis) > 1.0 AU; q (perihelion) < 1.017 AU"
        }
    },
    "is_sentry_object": false
}